SAR-LUPE 2              
1 31797U 07030A   26155.29841808  .00038695  00000+0  73960-3 0  9994
2 31797  98.1031 258.1570 0009929 155.1918 204.9809 15.47953296 54943
SAPPHIRE                
1 39088U 13009C   26155.05544069  .00000126  00000+0  58949-4 0  9990
2 39088  98.4257 334.8234 0010031 290.2950  69.7158 14.35236900694697
PRAETORIAN SDA_602      
1 65565U 25203A   26155.08664669  .00000073  00000+0  54524-4 0  9996
2 65565  81.3040  22.9051 0005151 222.8160 137.2596 13.84341848 36889
PRAETORIAN SDA_603      
1 65566U 25203B   26155.10919245  .00000263  00000+0  22678-3 0  9998
2 65566  81.3051  22.7900 0008818 225.4084 134.6354 13.83904337 36891
PRAETORIAN SDA_604      
1 65567U 25203C   26155.12080703  .00000143  00000+0  12013-3 0  9998
2 65567  81.3062  23.1730 0004695 231.1882 128.8855 13.83046153 36871
PRAETORIAN SDA_605      
1 65568U 25203D   26155.08978783  .00000099  00000+0  79328-4 0  9991
2 65568  81.3027  22.8773 0007447 220.9153 139.1445 13.83433283 36886
PRAETORIAN SDA_606      
1 65569U 25203E   26155.07208143  .00000109  00000+0  88551-4 0  9997
2 65569  81.3063  23.1099 0005088 219.1397 140.9392 13.83406289 36877
PRAETORIAN SDA_607      
1 65570U 25203F   26155.08841707  .00000281  00000+0  24155-3 0  9999
2 65570  81.3047  22.7779 0008020 226.0392 134.0104 13.84283324 36893
PRAETORIAN SDA_608      
1 65571U 25203G   26155.06139629  .00000105  00000+0  84207-4 0  9991
2 65571  81.3015  22.9598 0005194 230.3538 129.7161 13.83815686 36872
PRAETORIAN SDA_609      
1 65572U 25203H   26155.07044999  .00000250  00000+0  21294-3 0  9995
2 65572  81.3058  22.9378 0006064 223.4889 136.5790 13.84283902 36881
PRAETORIAN SDA_610      
1 65573U 25203J   26155.11378526  .00000068  00000+0  50459-4 0  9990
2 65573  81.3016  22.8698 0005862 227.0538 133.0128 13.83850959 36884
PRAETORIAN SDA_611      
1 65574U 25203K   26155.10944072  .00000201  00000+0  17269-3 0  9995
2 65574  81.3013  23.0290 0004766 235.8761 124.1943 13.83308619 36876
PRAETORIAN SDA_612      
1 65575U 25203L   26155.11537121  .00000169  00000+0  13939-3 0  9993
2 65575  81.3037  22.6417 0008508 224.5575 135.4899 13.85037705 36901
PRAETORIAN SDA_613      
1 65576U 25203M   26155.11104526  .00000074  00000+0  57548-4 0  9993
2 65576  81.3009  23.0140 0004951 222.1837 137.8938 13.82764143 36878
PRAETORIAN SDA_614      
1 65577U 25203N   26155.10209059  .00000111  00000+0  87832-4 0  9991
2 65577  81.3023  22.7287 0006395 221.7423 138.3247 13.84777541 36904
PRAETORIAN SDA_615      
1 65578U 25203P   26155.07574531  .00000253  00000+0  21550-3 0  9999
2 65578  81.3032  22.7089 0008331 222.8480 137.2028 13.84435378 36894
PRAETORIAN SDA_616      
1 65579U 25203Q   26155.10826357  .00000219  00000+0  18904-3 0  9991
2 65579  81.3070  23.1669 0004543 234.7932 125.2800 13.83266564 36872
PRAETORIAN SDA_617      
1 65580U 25203R   26155.05641698  .00000122  00000+0  10076-3 0  9995
2 65580  81.3046  23.0467 0006646 222.2687 137.7958 13.83149817 36870
PRAETORIAN SDA_618      
1 65581U 25203S   26155.11626053  .00000199  00000+0  16649-3 0  9997
2 65581  81.3028  22.6060 0008980 226.1688 133.8727 13.84668998 36904
PRAETORIAN SDA_619      
1 65582U 25203T   26155.07175402 -.00002216  00000+0 -20121-2 0  9993
2 65582  81.3047  22.9225 0007359 225.5956 134.4599 13.83820062 37515
PRAETORIAN SDA_620      
1 65583U 25203U   26155.09796572  .00000178  00000+0  15032-3 0  9992
2 65583  81.3037  22.9175 0006967 218.2203 141.8461 13.83617523 36882
PRAETORIAN SDA_621      
1 65584U 25203V   26155.07348463  .00000112  00000+0  90408-4 0  9992
2 65584  81.3029  22.8635 0006712 216.0674 144.0030 13.83800121 36885
PRAETORIAN SDA_601      
1 65585U 25203W   26155.11045211  .00000132  00000+0  10956-3 0  9994
2 65585  81.3045  23.1116 0004651 236.5159 123.5553 13.83166837 36877
